[{"OBJECT_NAME":"STARLINK-5196","OBJECT_ID":"2023-010BC","EPOCH":"2026-03-09T21:24:37.510848","MEAN_MOTION":14.98330027,"ECCENTRICITY":0.00027796,"INCLINATION":70.0009,"RA_OF_ASC_NODE":3.9051,"ARG_OF_PERICENTER":267.8181,"MEAN_ANOMALY":92.266,"EPHEMERIS_TYPE":0,"CLASSIFICATION_TYPE":"U","NORAD_CAT_ID":55319,"ELEMENT_SET_NO":999,"REV_AT_EPOCH":17467,"BSTAR":-3.2041794e-5,"MEAN_MOTION_DOT":-4.75e-6,"MEAN_MOTION_DDOT":0},{"OBJECT_NAME":"SITRO-AIS 14","OBJECT_ID":"2024-199T","EPOCH":"2026-03-09T22:54:28.226304","MEAN_MOTION":14.97122201,"ECCENTRICITY":0.00071847,"INCLINATION":97.3313,"RA_OF_ASC_NODE":274.5243,"ARG_OF_PERICENTER":48.7211,"MEAN_ANOMALY":311.463,"EPHEMERIS_TYPE":0,"CLASSIFICATION_TYPE":"U","NORAD_CAT_ID":61752,"ELEMENT_SET_NO":999,"REV_AT_EPOCH":12027,"BSTAR":0.00031190269,"MEAN_MOTION_DOT":3.549e-5,"MEAN_MOTION_DDOT":0}]
